{
  "type": "FeatureCollection",
  "features": [
    {
      "type": "Feature",
      "properties": {
        "norad_id": 37095,
        "name": "COSMOS 2251 DEB",
        "group": "cosmos-2251-debris",
        "lat": -41.71611636534098,
        "lon": 19.374231281282743,
        "alt_km": 753.2720635240466,
        "timestamp": "2025-12-15T20:48:54.281945+00:00",
        "meta_object_name": "COSMOS 2251 DEB",
        "meta_object_id": "1993-036BFR",
        "meta_epoch": "2025-12-14T06:06:08.543520",
        "meta_mean_motion": 14.03409585,
        "meta_eccentricity": 0.019488,
        "meta_inclination": 73.8479,
        "meta_ra_of_asc_node": 187.2421,
        "meta_arg_of_pericenter": 244.7942,
        "meta_mean_anomaly": 113.2877,
        "meta_ephemeris_type": 0,
        "meta_classification_type": "U",
        "meta_norad_cat_id": 37095,
        "meta_element_set_no": 999,
        "meta_rev_at_epoch": 62657,
        "meta_bstar": 0.0017117328,
        "meta_mean_motion_dot": 3.142e-05,
        "meta_mean_motion_ddot": 0,
        "tle_line1": "1 37095U 93036BFR 25348.25426555  .00003142  00000+0  17117-2 0  9999",
        "tle_line2": "2 37095  73.8479 187.2421 0194880 244.7942 113.2877 14.03409585626575"
      },
      "geometry": {
        "type": "Point",
        "coordinates": [
          19.374231281282743,
          -41.71611636534098
        ]
      }
    },
    {
      "type": "Feature",
      "properties": {
        "norad_id": 37108,
        "name": "COSMOS 2251 DEB",
        "group": "cosmos-2251-debris",
        "lat": -25.424233120069452,
        "lon": 66.95832152396642,
        "alt_km": 824.292763449148,
        "timestamp": "2025-12-15T20:48:54.281955+00:00",
        "meta_object_name": "COSMOS 2251 DEB",
        "meta_object_id": "1993-036BGE",
        "meta_epoch": "2025-12-13T22:17:49.587360",
        "meta_mean_motion": 14.41316868,
        "meta_eccentricity": 0.00911807,
        "meta_inclination": 74.0446,
        "meta_ra_of_asc_node": 78.3607,
        "meta_arg_of_pericenter": 154.7521,
        "meta_mean_anomaly": 205.8134,
        "meta_ephemeris_type": 0,
        "meta_classification_type": "U",
        "meta_norad_cat_id": 37108,
        "meta_element_set_no": 999,
        "meta_rev_at_epoch": 85524,
        "meta_bstar": 0.0015372523,
        "meta_mean_motion_dot": 5.202e-05,
        "meta_mean_motion_ddot": 0,
        "tle_line1": "1 37108U 93036BGE 25347.92904615  .00005202  00000+0  15373-2 0  9996",
        "tle_line2": "2 37108  74.0446  78.3607 0091180 154.7521 205.8134 14.41316868855240"
      },
      "geometry": {
        "type": "Point",
        "coordinates": [
          66.95832152396642,
          -25.424233120069452
        ]
      }
    },
    {
      "type": "Feature",
      "properties": {
        "norad_id": 37126,
        "name": "COSMOS 2251 DEB",
        "group": "cosmos-2251-debris",
        "lat": -47.2668738403197,
        "lon": -173.4429313246207,
        "alt_km": 571.338829907615,
        "timestamp": "2025-12-15T20:48:54.281965+00:00",
        "meta_object_name": "COSMOS 2251 DEB",
        "meta_object_id": "1993-036BGY",
        "meta_epoch": "2025-12-14T17:41:32.671680",
        "meta_mean_motion": 14.7308147,
        "meta_eccentricity": 0.01231107,
        "meta_inclination": 73.9539,
        "meta_ra_of_asc_node": 350.6179,
        "meta_arg_of_pericenter": 228.3769,
        "meta_mean_anomaly": 130.6808,
        "meta_ephemeris_type": 0,
        "meta_classification_type": "U",
        "meta_norad_cat_id": 37126,
        "meta_element_set_no": 999,
        "meta_rev_at_epoch": 8128,
        "meta_bstar": 0.00024804431,
        "meta_mean_motion_dot": 1.761e-05,
        "meta_mean_motion_ddot": 0,
        "tle_line1": "1 37126U 93036BGY 25348.73718370  .00001761  00000+0  24804-3 0  9993",
        "tle_line2": "2 37126  73.9539 350.6179 0123110 228.3769 130.6808 14.73081470 81283"
      },
      "geometry": {
        "type": "Point",
        "coordinates": [
          -173.4429313246207,
          -47.2668738403197
        ]
      }
    },
    {
      "type": "Feature",
      "properties": {
        "norad_id": 37132,
        "name": "COSMOS 2251 DEB",
        "group": "cosmos-2251-debris",
        "lat": -22.55016077061949,
        "lon": -138.95186338682734,
        "alt_km": 621.6809756383118,
        "timestamp": "2025-12-15T20:48:54.281976+00:00",
        "meta_object_name": "COSMOS 2251 DEB",
        "meta_object_id": "1993-036BHE",
        "meta_epoch": "2025-12-13T08:48:34.863552",
        "meta_mean_motion": 14.77850138,
        "meta_eccentricity": 0.00399242,
        "meta_inclination": 74.002,
        "meta_ra_of_asc_node": 232.8066,
        "meta_arg_of_pericenter": 28.724,
        "meta_mean_anomaly": 331.6121,
        "meta_ephemeris_type": 0,
        "meta_classification_type": "U",
        "meta_norad_cat_id": 37132,
        "meta_element_set_no": 999,
        "meta_rev_at_epoch": 62425,
        "meta_bstar": 0.0017766923,
        "meta_mean_motion_dot": 0.00012937,
        "meta_mean_motion_ddot": 0,
        "tle_line1": "1 37132U 93036BHE 25347.36707018  .00012937  00000+0  17767-2 0  9991",
        "tle_line2": "2 37132  74.0020 232.8066 0039924  28.7240 331.6121 14.77850138624258"
      },
      "geometry": {
        "type": "Point",
        "coordinates": [
          -138.95186338682734,
          -22.55016077061949
        ]
      }
    },
    {
      "type": "Feature",
      "properties": {
        "norad_id": 37270,
        "name": "COSMOS 2251 DEB",
        "group": "cosmos-2251-debris",
        "lat": -56.795389745025744,
        "lon": 176.90212965900326,
        "alt_km": 1090.8800147743468,
        "timestamp": "2025-12-15T20:48:54.281986+00:00",
        "meta_object_name": "COSMOS 2251 DEB",
        "meta_object_id": "1993-036BHJ",
        "meta_epoch": "2025-12-12T22:45:06.098400",
        "meta_mean_motion": 13.59808663,
        "meta_eccentricity": 0.03985351,
        "meta_inclination": 73.9378,
        "meta_ra_of_asc_node": 335.5481,
        "meta_arg_of_pericenter": 347.3958,
        "meta_mean_anomaly": 11.7404,
        "meta_ephemeris_type": 0,
        "meta_classification_type": "U",
        "meta_norad_cat_id": 37270,
        "meta_element_set_no": 999,
        "meta_rev_at_epoch": 77072,
        "meta_bstar": 0.0064936549,
        "meta_mean_motion_dot": 8.148e-05,
        "meta_mean_motion_ddot": 0,
        "tle_line1": "1 37270U 93036BHJ 25346.94798725  .00008148  00000+0  64937-2 0  9992",
        "tle_line2": "2 37270  73.9378 335.5481 0398535 347.3958  11.7404 13.59808663770728"
      },
      "geometry": {
        "type": "Point",
        "coordinates": [
          176.90212965900326,
          -56.795389745025744
        ]
      }
    },
    {
      "type": "Feature",
      "properties": {
        "norad_id": 37278,
        "name": "COSMOS 2251 DEB",
        "group": "cosmos-2251-debris",
        "lat": 6.940456450391371,
        "lon": 161.63467158850582,
        "alt_km": 628.4950505553661,
        "timestamp": "2025-12-15T20:48:54.281996+00:00",
        "meta_object_name": "COSMOS 2251 DEB",
        "meta_object_id": "1993-036BHS",
        "meta_epoch": "2025-12-04T09:26:36.152736",
        "meta_mean_motion": 14.15029915,
        "meta_eccentricity": 0.029998,
        "meta_inclination": 73.7864,
        "meta_ra_of_asc_node": 4.3592,
        "meta_arg_of_pericenter": 188.2556,
        "meta_mean_anomaly": 234.4903,
        "meta_ephemeris_type": 0,
        "meta_classification_type": "U",
        "meta_norad_cat_id": 37278,
        "meta_element_set_no": 999,
        "meta_rev_at_epoch": 63711,
        "meta_bstar": 0.0023061,
        "meta_mean_motion_dot": 6.884e-05,
        "meta_mean_motion_ddot": 0,
        "tle_line1": "1 37278U 93036BHS 25338.39347399  .00006884  00000+0  23061-2 0  9995",
        "tle_line2": "2 37278  73.7864   4.3592 0299980 188.2556 234.4903 14.15029915637119"
      },
      "geometry": {
        "type": "Point",
        "coordinates": [
          161.63467158850582,
          6.940456450391371
        ]
      }
    },
    {
      "type": "Feature",
      "properties": {
        "norad_id": 37280,
        "name": "COSMOS 2251 DEB",
        "group": "cosmos-2251-debris",
        "lat": 12.820337126999938,
        "lon": -132.25541286308794,
        "alt_km": 736.1330024013014,
        "timestamp": "2025-12-15T20:48:54.282007+00:00",
        "meta_object_name": "COSMOS 2251 DEB",
        "meta_object_id": "1993-036BHU",
        "meta_epoch": "2025-12-11T21:18:02.152224",
        "meta_mean_motion": 14.19307625,
        "meta_eccentricity": 0.0131129,
        "meta_inclination": 74.0314,
        "meta_ra_of_asc_node": 58.592,
        "meta_arg_of_pericenter": 187.3743,
        "meta_mean_anomaly": 172.5477,
        "meta_ephemeris_type": 0,
        "meta_classification_type": "U",
        "meta_norad_cat_id": 37280,
        "meta_element_set_no": 999,
        "meta_rev_at_epoch": 57311,
        "meta_bstar": 0.0026008,
        "meta_mean_motion_dot": 5.928e-05,
        "meta_mean_motion_ddot": 0,
        "tle_line1": "1 37280U 93036BHU 25345.88752491  .00005928  00000+0  26008-2 0  9995",
        "tle_line2": "2 37280  74.0314  58.5920 0131129 187.3743 172.5477 14.19307625573118"
      },
      "geometry": {
        "type": "Point",
        "coordinates": [
          -132.25541286308794,
          12.820337126999938
        ]
      }
    }
  ]
}